ORBCOMM FM108           
1 41187U 15081J   24222.49512668  .00003117  00000+0  72605-3 0  9993
2 41187  47.0038 137.6889 0002699 317.0597  43.0077 14.56824600461407
ORBCOMM FM117           
1 41188U 15081K   24222.46104326  .00003129  00000+0  72904-3 0  9994
2 41188  46.9999 136.7129 0003349 328.3806  31.6877 14.56811514461412
ORBCOMM FM116           
1 41189U 15081L   24222.17518659  .00001322  00000+0  32960-3 0  9992
2 41189  47.0004 227.8788 0001839  20.7292 339.3667 14.56807814460208
